#aV2013  9  3  0  0  0.00000000     288 DD+AD WGS84 FIT  NGA
## 1756 172800.00000000   300.00000000 56538 0.0000000000000
+   31     1  2  3  4  5  6  7  8  9 10 11 12 13 14 15 16 17
+         18 19 20 21 22 23 24 25 26 27 28 29 31 32  0  0  0
+          0  0  0  0  0  0  0  0  0  0  0  0  0  0  0  0  0
+          0  0  0  0  0  0  0  0  0  0  0  0  0  0  0  0  0
+          0  0  0  0  0  0  0  0  0  0  0  0  0  0  0  0  0
++         2  2  2  2  2  2  2  2  2  2  2  2  2  2  2  2  2
++         2  2  2  2  2  2  2  2  2  2  2  2  2  2  2  0  0
++         0  0  0  0  0  0  0  0  0  0  0  0  0  0  0  0  0
++         0  0  0  0  0  0  0  0  0  0  0  0  0  0  0  0  0
++         0  0  0  0  0  0  0  0  0  0  0  0  0  0  0  0  0
%c cc cc ccc ccc cccc cccc cccc cccc ccccc ccccc ccccc ccccc
%c cc cc ccc ccc cccc cccc cccc cccc ccccc ccccc ccccc ccccc
%f  0.0000000  0.000000000  0.00000000000  0.000000000000000
%f  0.0000000  0.000000000  0.00000000000  0.000000000000000
%i    0    0    0    0      0      0      0      0         0
%i    0    0    0    0      0      0      0      0         0
/*      NGA, ST. LOUIS,MO.                                  
/*   EPHEMERIS COMPUTED FROM  1 DAYS OF DATA
/*   EPOCHA SMOOTHER  
/* CCCCCCCCCCCCCCCCCCCCCCCCCCCCCCCCCCCCCCCCCCCCCCCCCCCCCCCCC
*  2013  9  3  4 30  0.00000000                                                 
P  1 -13603.816741  19996.599262  10832.817141     70.500444                    
V  1   1377.603845 -13992.169202  27594.026892      0.042946                    
P  2  15051.950714   3979.469246 -21291.024922    449.533175                    
V  2  -6756.731818  26816.184023   -269.621008      0.017622                    
P  3 -22422.926467  -5264.051420  12859.575869    254.428567                    
V  3 -11858.459968 -12766.428102 -24682.760396      0.049719                    
P  4   9753.598700  16268.033881 -18779.482610    317.068163                    
V  4  -8020.652163  22068.626897  15458.813542      0.100716                    
P  5  25469.777775   -727.040336  -7794.389578   -399.673399                    
V  5  -8820.482675   5223.444266 -29261.165854     -0.000397                    
P  6 -22445.172356 -11541.747417   8930.739406     34.520946                    
V  6  -6409.395244  -9566.254743 -28292.326907      0.192187                    
P  7  -5245.775752  25601.809921   3692.016303    254.407970                    
V  7  -3843.246363   3690.574778 -31827.868661      0.042066                    
P  8    968.127168  22044.524087  14433.276288      8.229727                    
V  8  -8462.420617  16300.466463 -25128.938324      0.002119                    
P  9   2549.145738  22671.368205  12961.738792    265.767010                    
V  9  -6567.014044  16171.059200 -26055.261149      0.027249                    
P 10  14427.806118  11277.558702 -19676.912734    -93.068369                    
V 10 -23364.266514   6675.666893 -13094.724572     -0.013670                    
P 11 -13602.062841  14282.329547  17219.898855   -416.227192                    
V 11  -3525.330001 -23064.821983  16179.672469     -0.035320                    
P 12  22636.028833 -10722.288213  -8567.015931    154.156527                    
V 12  11030.768541   -301.590055  29883.146928      0.021619                    
P 13   -370.373312  19320.667561 -18287.643207     83.757794                    
V 13 -15228.662548 -17229.617410 -18161.607816     -0.037752                    
P 14 -15493.454993 -21510.592921   2870.818056    216.645334                    
V 14   3904.292131   1114.085639  31647.339279     -0.008798                    
P 15  15191.525843  -6475.781679  20815.671757   -135.242936                    
V 15  18555.688628  18976.292952  -7367.913788     -0.018496                    
P 16 -25535.383562   -321.952758  -7941.567431   -247.477022                    
V 16   9423.483291  -3514.610108 -29949.530572      0.007258                    
P 17  14778.466705  21703.414392   4997.991208    -17.568812                    
V 17  -5770.263176  -2916.442170  30882.416938     -0.037702                    
P 18   2457.280739 -16759.145841  20819.311379    272.089242                    
V 18  25155.860642  -5314.357745  -7746.358284      0.019720                    
P 19 -17482.881315    455.566934  19999.949739   -401.330439                    
V 19 -15306.493016 -20431.675001 -12422.930133     -0.028520                    
P 20 -18234.091937  15165.591657 -12056.403763    119.864272                    
V 20 -15410.225348   1468.398900  25597.063241      0.025128                    
P 21   1534.544678 -25379.419853   7281.553507   -316.781111                    
V 21   6024.564548  -7301.827799 -29555.639715     -0.019162                    
P 22 -10768.442059 -13278.416172  20557.406466    182.946417                    
V 22  24748.726362  -7233.396900   8226.600067      0.018548                    
P 23  -9266.866870  12355.955038 -21490.128749     51.683724                    
V 23 -19312.919061 -19661.866005  -3365.853202     -0.034954                    
P 24  14861.538658 -16915.708726  14042.399112    -13.023570                    
V 24  -2571.783431  17822.080929  24222.699403     -0.007318                    
P 25  11247.769024 -15712.049258 -18239.345391    142.972585                    
V 25  22654.168427  -4423.117350  17932.418306      0.043371                    
P 26  20001.206733   9752.504809  14098.836647    171.926065                    
V 26  10448.272943  15789.147250 -24327.516882      0.178795                    
P 27 -21416.347355  -9157.506973  12765.327526    -31.882959                    
V 27  -9701.623866 -13201.003772 -25711.483950     -0.047063                    
P 28   6444.893623  13874.492356  22315.781790    289.419486                    
V 28 -26337.651757   5196.298252   4327.422524      0.031077                    
P 29   2171.312892 -17893.260760 -19480.152802    467.485697                    
V 29  17250.269963  17848.387844 -14400.759574      0.031215                    
P 31  -9114.572940 -15013.836218 -19662.675782    324.983328                    
V 31   8674.231155 -23875.722122  14361.652734      0.008511                    
P 32 -24798.128254   7326.438535  -4537.730435   -551.265225                    
V 32  -6504.800431  -2597.230454  31111.157976      0.023276                    
EOF
